SENTINEL-6              
1 46984U 20086A   24050.47813510 -.00000052  00000+0  38033-4 0  9995
2 46984  66.0404  97.8313 0007840 270.5390  89.4727 12.80930831151749
